NORAD_CAT_ID,OBJECT_NAME,OBJECT_TYPE,EPOCH,MEAN_MOTION,ECCENTRICITY,INCLINATION,RA_OF_ASC_NODE,ARG_OF_PERICENTER,MEAN_ANOMALY,BSTAR,MEAN_MOTION_DOT,MEAN_MOTION_DDOT,TLE_LINE0,TLE_LINE1,TLE_LINE2,SEMIMAJOR_AXIS,PERIOD,APOGEE,PERIGEE,DECAYED
53412.0,STARLINK-4496,PAYLOAD,2024-01-19 22:05:28,15.0884156,0.0001549,53.2181,14.6409,84.397,275.7198,5.2252e-06,-2.05e-06,0.0,0 STARLINK-4496,1 53412U 22097AA  24019.92046498 -.00000205  00000-0  52252-5 0  9992,2 53412  53.2181  14.6409 0001549  84.3970 275.7198 15.08841560 80938,6917.876,95.437,540.812,538.669,0.0
53412.0,STARLINK-4496,PAYLOAD,2024-01-20 02:51:37,15.08844305,0.0001598,53.2171,13.7467,107.6975,252.4192,0.00012343,1.677e-05,0.0,0 STARLINK-4496,1 53412U 22097AA  24020.11918350  .00001677  00000-0  12343-3 0  9998,2 53412  53.2171  13.7467 0001598 107.6975 252.4192 15.08844305 80474,6917.867,95.437,540.838,538.627,0.0
53412.0,STARLINK-4496,PAYLOAD,2024-01-20 06:02:23,15.08851078,0.000163,53.2181,13.1542,93.9888,266.1291,0.00023433,3.444e-05,0.0,0 STARLINK-4496,1 53412U 22097AA  24020.25166110  .00003444  00000-0  23433-3 0  9998,2 53412  53.2181  13.1542 0001630  93.9888 266.1291 15.08851078 80983,6917.847,95.437,540.839,538.584,0.0
53412.0,STARLINK-4496,PAYLOAD,2024-01-21 04:17:47,15.08842007,0.000177,53.2187,8.9878,109.87,250.2483,0.00014972,2.096e-05,0.0,0 STARLINK-4496,1 53412U 22097AA  24021.17902527  .00002096  00000-0  14972-3 0  9990,2 53412  53.2187   8.9878 0001770 109.8700 250.2483 15.08842007 80639,6917.874,95.437,540.964,538.515,0.0
53412.0,STARLINK-4496,PAYLOAD,2024-01-21 05:53:10,15.08843697,0.000172,53.2186,8.6903,106.5031,253.615,0.00013662,1.887e-05,0.0,0 STARLINK-4496,1 53412U 22097AA  24021.24526488  .00001887  00000-0  13662-3 0  9998,2 53412  53.2186   8.6903 0001720 106.5031 253.6150 15.08843697 81130,6917.869,95.437,540.924,538.544,0.0
53412.0,STARLINK-4496,PAYLOAD,2024-01-22 05:43:57,15.08848813,0.0001726,53.2185,4.2323,101.3462,258.7724,0.00027259,4.054e-05,0.0,0 STARLINK-4496,1 53412U 22097AA  24022.23886450  .00004054  00000-0  27259-3 0  9992,2 53412  53.2185   4.2323 0001726 101.3462 258.7724 15.08848813 81288,6917.853,95.437,540.912,538.524,0.0
53412.0,STARLINK-4496,PAYLOAD,2024-01-22 08:54:44,15.08851702,0.0001686,53.2181,3.6342,98.2501,261.8683,0.00032252,4.85e-05,0.0,0 STARLINK-4496,1 53412U 22097AA  24022.37134296  .00004850  00000-0  32252-3 0  9994,2 53412  53.2181   3.6342 0001686  98.2501 261.8683 15.08851702 80819,6917.845,95.437,540.876,538.543,0.0
53412.0,STARLINK-4496,PAYLOAD,2024-01-23 03:59:22,15.0883811,0.0001628,53.218,0.0613,105.1265,254.9907,2.2541e-05,7.1e-07,0.0,0 STARLINK-4496,1 53412U 22097AA  24023.16622782  .00000071  00000-0  22541-4 0  9996,2 53412  53.2180   0.0613 0001628 105.1265 254.9907 15.08838110 80934,6917.886,95.438,540.877,538.625,0.0
53412.0,STARLINK-4496,PAYLOAD,2024-01-23 05:34:45,15.08839747,0.0001528,53.2179,359.7629,101.7713,258.345,3.1078e-05,2.07e-06,0.0,0 STARLINK-4496,1 53412U 22097AA  24023.23246672  .00000207  00000-0  31078-4 0  9990,2 53412  53.2179 359.7629 0001528 101.7713 258.3450 15.08839747 81436,6917.881,95.438,540.803,538.689,0.0
53412.0,STARLINK-4496,PAYLOAD,2024-01-24 05:25:32,15.0884662,0.0001447,53.2184,355.308,86.0431,274.0727,0.00013158,1.807e-05,0.0,0 STARLINK-4496,1 53412U 22097AA  24024.22606637  .00001807  00000-0  13158-3 0  9996,2 53412  53.2184 355.3080 0001447  86.0431 274.0727 15.08846620 81099,6917.86,95.437,540.726,538.724,0.0
53412.0,STARLINK-4496,PAYLOAD,2024-01-25 03:40:57,15.08830572,0.0001871,53.2186,351.1446,60.6366,299.4813,0.00042988,6.558e-05,0.0,0 STARLINK-4496,1 53412U 22097AA  24025.15343782  .00006558  00000-0  42988-3 0  9999,2 53412  53.2186 351.1446 0001871  60.6366 299.4813 15.08830572 81239,6917.909,95.438,541.069,538.48,0.0
53412.0,STARLINK-4496,PAYLOAD,2024-01-25 05:16:19,15.0884249,0.0001785,53.2187,350.8508,62.7546,297.3628,0.00017336,2.472e-05,0.0,0 STARLINK-4496,1 53412U 22097AA  24025.21967195  .00002472  00000-0  17336-3 0  9996,2 53412  53.2187 350.8508 0001785  62.7546 297.3628 15.08842490 81246,6917.873,95.437,540.973,538.503,0.0
53412.0,STARLINK-4496,PAYLOAD,2024-01-26 03:31:43,15.08839349,0.0001581,53.22,346.6846,78.4752,281.6417,1.8938e-05,1.3e-07,0.0,0 STARLINK-4496,1 53412U 22097AA  24026.14703462  .00000013  00000-0  18938-4 0  9993,2 53412  53.2200 346.6846 0001581  78.4752 281.6417 15.08839349 81383,6917.882,95.438,540.841,538.654,0.0
53412.0,STARLINK-4496,PAYLOAD,2024-01-27 06:33:16,15.08850144,0.0001758,53.2193,341.6257,78.0985,282.0204,0.00022759,3.337e-05,0.0,0 STARLINK-4496,1 53412U 22097AA  24027.27311252  .00003337  00000-0  22759-3 0  9997,2 53412  53.2193 341.6257 0001758  78.0985 282.0204 15.08850144 81559,6917.849,95.437,540.931,538.498,0.0
53412.0,STARLINK-4496,PAYLOAD,2024-01-28 03:13:17,15.08842884,0.0001589,53.2198,337.7544,103.6621,256.4548,9.9303e-05,1.293e-05,0.0,0 STARLINK-4496,1 53412U 22097AA  24028.13423431  .00001293  00000-0  99303-4 0  9995,2 53412  53.2198 337.7544 0001589 103.6621 256.4548 15.08842884 81685,6917.872,95.437,540.836,538.637,0.0
53412.0,STARLINK-4496,PAYLOAD,2024-01-28 06:24:04,15.08839529,0.000174,53.2205,337.1645,114.4898,245.6276,3.7548e-05,3.1e-06,0.0,0 STARLINK-4496,1 53412U 22097AA  24028.26671581  .00000310  00000-0  37548-4 0  9992,2 53412  53.2205 337.1645 0001740 114.4898 245.6276 15.08839529 82192,6917.882,95.438,540.951,538.543,0.0
53412.0,STARLINK-4496,PAYLOAD,2024-01-29 01:28:42,15.08827624,0.0002189,53.2194,333.5972,128.2882,231.8307,0.00040029,6.086e-05,0.0,0 STARLINK-4496,1 53412U 22097AA  24029.06160192  .00006086  00000-0  40029-3 0  9995,2 53412  53.2194 333.5972 0002189 128.2882 231.8307 15.08827624 81820,6917.918,95.438,541.298,538.269,0.0
53412.0,STARLINK-4496,PAYLOAD,2024-01-29 06:14:51,15.0884903,0.000203,53.2196,332.7063,130.9253,229.1915,-1.1812e-05,-4.76e-06,0.0,0 STARLINK-4496,1 53412U 22097AA  24029.26031265 -.00000476  00000-0 -11812-4 0  9993,2 53412  53.2196 332.7063 0002030 130.9253 229.1915 15.08849030 81854,6917.853,95.437,541.122,538.313,0.0
53412.0,STARLINK-4496,PAYLOAD,2024-01-30 01:19:28,15.08842575,0.0001883,53.219,329.1383,117.9845,242.1338,0.00013326,1.833e-05,0.0,0 STARLINK-4496,1 53412U 22097AA  24030.05519506  .00001833  00000-0  13326-3 0  9998,2 53412  53.2190 329.1383 0001883 117.9845 242.1338 15.08842575 81974,6917.873,95.437,541.04,538.435,0.0
53412.0,STARLINK-4496,PAYLOAD,2024-01-30 18:48:43,15.08835781,0.0001954,53.2192,325.8683,126.0169,234.1005,8.5119e-05,1.067e-05,0.0,0 STARLINK-4496,1 53412U 22097AA  24030.78384153  .00001067  00000-0  85119-4 0  9995,2 53412  53.2192 325.8683 0001954 126.0169 234.1005 15.08835781 82087,6917.893,95.438,541.11,538.407,0.0
53412.0,STARLINK-4496,PAYLOAD,2024-01-31 01:10:16,15.08844442,0.0001431,53.2178,324.6821,104.3147,255.8004,5.9868e-05,6.65e-06,0.0,0 STARLINK-4496,1 53412U 22097AA  24031.04879668  .00000665  00000-0  59868-4 0  9990,2 53412  53.2178 324.6821 0001431 104.3147 255.8004 15.08844442 82125,6917.867,95.437,540.722,538.742,0.0
53412.0,STARLINK-4496,PAYLOAD,2024-02-01 02:36:27,15.08834631,0.0001339,53.2179,319.9277,91.4429,268.6717,3.1174e-05,2.08e-06,0.0,0 STARLINK-4496,1 53412U 22097AA  24032.10864602  .00000208  00000-0  31174-4 0  9993,2 53412  53.2179 319.9277 0001339  91.4429 268.6717 15.08834631 82283,6917.897,95.438,540.688,538.835,0.0
53412.0,STARLINK-4496,PAYLOAD,2024-02-01 18:30:18,15.0883846,0.0001368,53.2181,316.9542,86.0659,274.049,8.3425e-05,1.04e-05,0.0,0 STARLINK-4496,1 53412U 22097AA  24032.77104373  .00001040  00000-0  83425-4 0  9999,2 53412  53.2181 316.9542 0001368  86.0659 274.0490 15.08838460 82873,6917.885,95.438,540.696,538.804,0.0
53412.0,STARLINK-4496,PAYLOAD,2024-02-02 02:27:13,15.08846894,0.0001469,53.2184,315.4683,82.0293,278.0866,0.00015735,2.218e-05,0.0,0 STARLINK-4496,1 53412U 22097AA  24033.10223701  .00002218  00000-0  15735-3 0  9990,2 53412  53.2184 315.4683 0001469  82.0293 278.0866 15.08846894 82431,6917.859,95.437,540.741,538.708,0.0
53412.0,STARLINK-4496,PAYLOAD,2024-02-03 03:53:23,15.08844016,0.0001723,53.2186,310.7044,73.2855,286.8326,0.00012997,1.781e-05,0.0,0 STARLINK-4496,1 53412U 22097AA  24034.16207971  .00001781  00000-0  12997-3 0  9999,2 53412  53.2186 310.7044 0001723  73.2855 286.8326 15.08844016 82590,6917.868,95.437,540.925,538.541,0.0
53412.0,STARLINK-4496,PAYLOAD,2024-02-03 21:22:38,15.08844919,0.0001603,53.2184,307.4311,99.9386,260.1787,-1.5859e-05,-5.4e-06,0.0,0 STARLINK-4496,1 53412U 22097AA  24034.89072099 -.00000540  00000-0 -15859-4 0  9995,2 53412  53.2184 307.4311 0001603  99.9386 260.1787 15.08844919 83194,6917.865,95.437,540.839,538.621,0.0
53412.0,STARLINK-4496,PAYLOAD,2024-02-04 03:44:10,15.08849626,0.0001465,53.2175,306.2454,92.6329,267.483,4.1107e-05,3.66e-06,0.0,0 STARLINK-4496,1 53412U 22097AA  24035.15567501  .00000366  00000-0  41107-4 0  9991,2 53412  53.2175 306.2454 0001465  92.6329 267.4830 15.08849626 83236,6917.851,95.437,540.729,538.703,0.0
53412.0,STARLINK-4496,PAYLOAD,2024-02-04 21:13:25,15.08843228,0.0001523,53.2173,302.9723,83.3939,276.7226,1.4581e-06,-2.65e-06,0.0,0 STARLINK-4496,1 53412U 22097AA  24035.88432011 -.00000265  00000-0  14581-5 0  9994,2 53412  53.2173 302.9723 0001523  83.3939 276.7226 15.08843228 82856,6917.871,95.437,540.789,538.682,0.0
53412.0,STARLINK-4496,PAYLOAD,2024-02-04 22:48:48,15.08843534,0.0001439,53.2173,302.675,83.2745,276.8411,3.5791e-06,-2.31e-06,0.0,0 STARLINK-4496,1 53412U 22097AA  24035.95055952 -.00000231  00000-0  35791-5 0  9996,2 53412  53.2173 302.6750 0001439  83.2745 276.8411 15.08843534 83356,6917.87,95.437,540.73,538.739,0.0
53412.0,STARLINK-4496,PAYLOAD,2024-02-05 03:34:57,15.08842729,0.0001405,53.2173,301.7832,91.4136,268.7017,3.6603e-05,2.95e-06,0.0,0 STARLINK-4496,1 53412U 22097AA  24036.14927822  .00000295  00000-0  36603-4 0  9993,2 53412  53.2173 301.7832 0001405  91.4136 268.7017 15.08842729 83385,6917.872,95.437,540.709,538.765,0.0
